STARLINK-3285           
1 50181U 21125AB  26068.80306852  .00005873  00000+0  38691-3 0  9992
2 50181  53.2154 248.6220 0000990  96.1062 264.0043 15.08829905236628
DISKSAT C               
1 67219U 25305A   26068.80315184  .00011541  00000+0  75564-3 0  9993
2 67219  45.0017 250.1278 0004534 310.7706  49.2776 15.07852977 12312
